{"fetched_at":"2026-07-18T06:27:44.179Z","source":"https://celestrak.org/NORAD/elements/gp.php?GROUP=kuiper&FORMAT=JSON","constellation":"kuiper","records":[{"OBJECT_NAME":"KUIPER-00629","OBJECT_ID":"2026-151W","EPOCH":"2026-07-17T22:00:01.999584","CLASSIFICATION_TYPE":"U","MEAN_MOTION":15.3196693,"ECCENTRICITY":0.00069418,"INCLINATION":51.8775,"RA_OF_ASC_NODE":167.35,"ARG_OF_PERICENTER":164.1206,"MEAN_ANOMALY":145.4064,"EPHEMERIS_TYPE":0,"NORAD_CAT_ID":69783,"ELEMENT_SET_NO":999,"REV_AT_EPOCH":275,"BSTAR":-0.031128878,"MEAN_MOTION_DOT":-0.00896769,"MEAN_MOTION_DDOT":0},{"OBJECT_NAME":"KUIPER-00631","OBJECT_ID":"2026-151X","EPOCH":"2026-07-17T22:00:01.999584","CLASSIFICATION_TYPE":"U","MEAN_MOTION":15.33681347,"ECCENTRICITY":0.00086995,"INCLINATION":51.8734,"RA_OF_ASC_NODE":167.3463,"ARG_OF_PERICENTER":169.4356,"MEAN_ANOMALY":135.728,"EPHEMERIS_TYPE":0,"NORAD_CAT_ID":69784,"ELEMENT_SET_NO":999,"REV_AT_EPOCH":130,"BSTAR":-0.06653595,"MEAN_MOTION_DOT":-0.01965235,"MEAN_MOTION_DDOT":0},{"OBJECT_NAME":"KUIPER-00634","OBJECT_ID":"2026-151Y","EPOCH":"2026-07-17T21:54:36.932544","CLASSIFICATION_TYPE":"U","MEAN_MOTION":15.37783924,"ECCENTRICITY":0.00037451,"INCLINATION":51.8777,"RA_OF_ASC_NODE":167.2035,"ARG_OF_PERICENTER":143.3185,"MEAN_ANOMALY":216.8059,"EPHEMERIS_TYPE":0,"NORAD_CAT_ID":69785,"ELEMENT_SET_NO":999,"REV_AT_EPOCH":243,"BSTAR":0.00037197347,"MEAN_MOTION_DOT":0.00013659,"MEAN_MOTION_DDOT":0},{"OBJECT_NAME":"KUIPER-00639","OBJECT_ID":"2026-151Z","EPOCH":"2026-07-17T12:56:37.614336","CLASSIFICATION_TYPE":"U","MEAN_MOTION":15.35626821,"ECCENTRICITY":0.0009112,"INCLINATION":51.8689,"RA_OF_ASC_NODE":169.1889,"ARG_OF_PERICENTER":170.0527,"MEAN_ANOMALY":190.0641,"EPHEMERIS_TYPE":0,"NORAD_CAT_ID":69786,"ELEMENT_SET_NO":999,"REV_AT_EPOCH":237,"BSTAR":-0.0017706,"MEAN_MOTION_DOT":-0.00062241,"MEAN_MOTION_DDOT":0},{"OBJECT_NAME":"KUIPER-00641","OBJECT_ID":"2026-151AA","EPOCH":"2026-07-17T14:39:31.848192","CLASSIFICATION_TYPE":"U","MEAN_MOTION":15.34689931,"ECCENTRICITY":0.00115144,"INCLINATION":51.8674,"RA_OF_ASC_NODE":168.917,"ARG_OF_PERICENTER":170.2077,"MEAN_ANOMALY":189.9135,"EPHEMERIS_TYPE":0,"NORAD_CAT_ID":69787,"ELEMENT_SET_NO":999,"REV_AT_EPOCH":238,"BSTAR":0.00017028551,"MEAN_MOTION_DOT":0.00005443,"MEAN_MOTION_DDOT":0},{"OBJECT_NAME":"KUIPER-00644","OBJECT_ID":"2026-151AB","EPOCH":"2026-07-17T22:00:01.999584","CLASSIFICATION_TYPE":"U","MEAN_MOTION":15.36519684,"ECCENTRICITY":0.00084665,"INCLINATION":51.8745,"RA_OF_ASC_NODE":167.3215,"ARG_OF_PERICENTER":168.8415,"MEAN_ANOMALY":144.5711,"EPHEMERIS_TYPE":0,"NORAD_CAT_ID":69788,"ELEMENT_SET_NO":999,"REV_AT_EPOCH":336,"BSTAR":0.00085474634,"MEAN_MOTION_DOT":0.00030705,"MEAN_MOTION_DDOT":0},{"OBJECT_NAME":"KUIPER-00646","OBJECT_ID":"2026-151AC","EPOCH":"2026-07-17T12:55:38.553024","CLASSIFICATION_TYPE":"U","MEAN_MOTION":15.35928647,"ECCENTRICITY":0.0009317,"INCLINATION":51.87,"RA_OF_ASC_NODE":169.1868,"ARG_OF_PERICENTER":172.9789,"MEAN_ANOMALY":187.1329,"EPHEMERIS_TYPE":0,"NORAD_CAT_ID":69789,"ELEMENT_SET_NO":999,"REV_AT_EPOCH":237,"BSTAR":0.00033092,"MEAN_MOTION_DOT":0.00011396,"MEAN_MOTION_DDOT":0},{"OBJECT_NAME":"KUIPER-00647","OBJECT_ID":"2026-151AD","EPOCH":"2026-07-17T22:24:22.557024","CLASSIFICATION_TYPE":"U","MEAN_MOTION":15.35159083,"ECCENTRICITY":0.00102443,"INCLINATION":51.869,"RA_OF_ASC_NODE":167.3315,"ARG_OF_PERICENTER":174.9482,"MEAN_ANOMALY":185.1609,"EPHEMERIS_TYPE":0,"NORAD_CAT_ID":69790,"ELEMENT_SET_NO":999,"REV_AT_EPOCH":243,"BSTAR":-0.000091443973,"MEAN_MOTION_DOT":-0.0000356,"MEAN_MOTION_DDOT":0},{"OBJECT_NAME":"KUIPER-00662","OBJECT_ID":"2026-151AE","EPOCH":"2026-07-17T22:12:10.744704","CLASSIFICATION_TYPE":"U","MEAN_MOTION":15.36532861,"ECCENTRICITY":0.00083949,"INCLINATION":51.8741,"RA_OF_ASC_NODE":167.2814,"ARG_OF_PERICENTER":168.6243,"MEAN_ANOMALY":191.4935,"EPHEMERIS_TYPE":0,"NORAD_CAT_ID":69791,"ELEMENT_SET_NO":999,"REV_AT_EPOCH":243,"BSTAR":0.000074472484,"MEAN_MOTION_DOT":0.00002308,"MEAN_MOTION_DDOT":0}]}
