KUIPER-00629            
1 69783U 26151W   26198.91668981 -.00896769  00000+0 -31129-1 0  9995
2 69783  51.8775 167.3500 0006941 164.1206 145.4064 15.31966930  2751
KUIPER-00631            
1 69784U 26151X   26198.91668981 -.01965235  00000+0 -66536-1 0  9992
2 69784  51.8734 167.3463 0008699 169.4356 135.7280 15.33681347  1301
KUIPER-00634            
1 69785U 26151Y   26198.91292746  .00013659  00000+0  37197-3 0  9999
2 69785  51.8777 167.2035 0003745 143.3185 216.8059 15.37783924  2439
KUIPER-00639            
1 69786U 26151Z   26198.53932424 -.00062241  00000+0 -17706-2 0  9998
2 69786  51.8689 169.1889 0009112 170.0527 190.0641 15.35626821  2374
KUIPER-00641            
1 69787U 26151AA  26198.61078528  .00005443  00000+0  17029-3 0  9992
2 69787  51.8674 168.9170 0011514 170.2077 189.9135 15.34689931  2386
KUIPER-00644            
1 69788U 26151AB  26198.91668981  .00030705  00000+0  85475-3 0  9993
2 69788  51.8745 167.3215 0008466 168.8415 144.5711 15.36519684  3365
KUIPER-00646            
1 69789U 26151AC  26198.53864066  .00011396  00000+0  33092-3 0  9997
2 69789  51.8700 169.1868 0009317 172.9789 187.1329 15.35928647  2377
KUIPER-00647            
1 69790U 26151AD  26198.93359441 -.00003560  00000+0 -91444-4 0  9991
2 69790  51.8690 167.3315 0010244 174.9482 185.1609 15.35159083  2433
KUIPER-00662            
1 69791U 26151AE  26198.92512436  .00002308  00000+0  74472-4 0  9995
2 69791  51.8741 167.2814 0008394 168.6243 191.4935 15.36532861  2434
